API VERSION: 1.2
API SOURCE: NASA/JPL Horizons API



*******************************************************************************
Ephemeris / API_USER Fri Apr  3 11:28:58 2026 Pasadena, USA      / Horizons
*******************************************************************************
Target body name: Mercury (199)                   {source: DE441}
Center body name: Sun (10)                        {source: DE441}
Center-site name: BODY CENTER
*******************************************************************************
Start time      : A.D. 2025-Jan-23 04:20:00.0004 TDB
Stop  time      : A.D. 2025-Jan-25 04:20:00.0004 TDB
Step-size       : 60 minutes
*******************************************************************************
Center geodetic : 0.0, 0.0, 0.0                   {E-lon(deg),Lat(deg),Alt(km)}
Center cylindric: 0.0, 0.0, 0.0                   {E-lon(deg),Dxy(km),Dz(km)}
Center radii    : 695700.0, 695700.0, 695700.0 km {Equator_a, b, pole_c}
Output units    : AU-D
Calendar mode   : Mixed Julian/Gregorian
Output type     : GEOMETRIC cartesian states
Output format   : 3 (position, velocity, LT, range, range-rate)
Reference frame : Ecliptic of J2000.0
*******************************************************************************
            JDTDB,            Calendar Date (TDB),                      X,                      Y,                      Z,                     VX,                     VY,                     VZ,                     LT,                     RG,                     RR,
**************************************************************************************************************************************************************************************************************************************************************************
$$SOE
2460698.680555560, A.D. 2025-Jan-23 04:20:00.0004, -2.248559349369532E-02, -4.629734295704883E-01, -3.577246121603694E-02,  2.245802729856409E-02,  7.429385178120751E-05, -2.053811981160580E-03,  2.685023920923947E-03,  4.648974805099254E-01, -1.002174160868410E-03,
2460698.722222227, A.D. 2025-Jan-23 05:20:00.0004, -2.154978566519316E-02, -4.629691503196589E-01, -3.585794518319522E-02,  2.246072945016891E-02,  1.311126670840348E-04, -2.049416495360812E-03,  2.684781360848864E-03,  4.648554825348237E-01, -1.013728306899308E-03,
2460698.763888894, A.D. 2025-Jan-23 06:20:00.0004, -2.061386762493134E-02, -4.629625033090660E-01, -3.594324576174596E-02,  2.246331745174917E-02,  1.879463022843418E-04, -2.045009328446230E-03,  2.684536020552233E-03,  4.648130031792833E-01, -1.025280417766598E-03,
2460698.805555560, A.D. 2025-Jan-23 07:20:00.0004, -1.967784413057439E-02, -4.629534879234824E-01, -3.602836246503178E-02,  2.246579123536832E-02,  2.447946484809103E-04, -2.040590483085275E-03,  2.684287900526806E-03,  4.647700425286217E-01, -1.036830468568498E-03,
2460698.847222227, A.D. 2025-Jan-23 08:20:00.0004, -1.874171994262849E-02, -4.629421035522212E-01, -3.611329480650571E-02,  2.246815073256494E-02,  3.016575966133842E-04, -2.036159961911245E-03,  2.684037001271333E-03,  4.647266006691946E-01, -1.048378434348129E-03,
2460698.888888894, A.D. 2025-Jan-23 09:20:00.0004, -1.780549982446331E-02, -4.629283495891435E-01, -3.619804229972975E-02,  2.247039587435224E-02,  3.585350374590742E-04, -2.031717767522518E-03,  2.683783323290575E-03,  4.646826776883987E-01, -1.059924290092845E-03,
2460698.930555560, A.D. 2025-Jan-23 10:20:00.0004, -1.686918854233392E-02, -4.629122254326644E-01, -3.628260445837352E-02,  2.247252659121752E-02,  4.154268616297622E-04, -2.027263902482766E-03,  2.683526867095321E-03,  4.646382736746742E-01, -1.071468010733565E-03,
2460698.972222227, A.D. 2025-Jan-23 11:20:00.0004, -1.593279086540273E-02, -4.628937304857607E-01, -3.636698079621276E-02,  2.247454281312167E-02,  4.723329595684988E-04, -2.022798369321163E-03,  2.683267633202397E-03,  4.645933887175073E-01, -1.083009571144111E-03,
2460699.013888894, A.D. 2025-Jan-23 12:20:00.0004, -1.499631156576141E-02, -4.628728641559776E-01, -3.645117082712771E-02,  2.247644446949870E-02,  5.292532215463893E-04, -2.018321170532609E-03,  2.683005622134686E-03,  4.645480229074320E-01, -1.094548946140538E-03,
2460699.055555560, A.D. 2025-Jan-23 13:20:00.0004, -1.405975541845289E-02, -4.628496258554355E-01, -3.653517406510206E-02,  2.247823148925518E-02,  5.861875376593740E-04, -2.013832308577944E-03,  2.682740834421135E-03,  4.645021763360326E-01, -1.106086110480463E-03,
2460699.097222227, A.D. 2025-Jan-23 14:20:00.0004, -1.312312720149326E-02, -4.628240150008385E-01, -3.661899002422116E-02,  2.247990380076980E-02,  6.431357978250035E-04, -2.009331785884164E-03,  2.682473270596776E-03,  4.644558490959468E-01, -1.117621038862393E-03,
2460699.138888894, A.D. 2025-Jan-23 15:20:00.0004, -1.218643169589393E-02, -4.627960310134807E-01, -3.670261821867093E-02,  2.248146133189282E-02,  7.000978917792031E-04, -2.004819604844644E-03,  2.682202931202733E-03,  4.644090412808677E-01, -1.129153705925054E-03,
2460699.180555560, A.D. 2025-Jan-23 16:20:00.0004, -1.124967368568348E-02, -4.627656733192549E-01, -3.678605816273621E-02,  2.248290400994564E-02,  7.570737090730270E-04, -2.000295767819355E-03,  2.681929816786242E-03,  4.643617529855467E-01, -1.140684086246713E-03,
2460699.222222227, A.D. 2025-Jan-23 17:20:00.0004, -1.031285795792985E-02, -4.627329413486592E-01, -3.686930937079953E-02,  2.248423176172023E-02,  8.140631390694152E-04, -1.995760277135084E-03,  2.681653927900667E-03,  4.643139843057948E-01, -1.152212154344510E-03,
2460699.263888894, A.D. 2025-Jan-23 18:20:00.0004, -9.375989302762325E-03, -4.626978345368062E-01, -3.695237135733966E-02,  2.248544451347867E-02,  8.710660709399280E-04, -1.991213135085656E-03,  2.681375265105508E-03,  4.642657353384869E-01, -1.163737884673769E-03,
2460699.305555560, A.D. 2025-Jan-23 19:20:00.0004, -8.439072513393670E-03, -4.626603523234302E-01, -3.703524363693026E-02,  2.248654219095271E-02,  9.280823936614838E-04, -1.986654343932157E-03,  2.681093828966420E-03,  4.642170061815634E-01, -1.175261251627332E-03,
2460699.347222227, A.D. 2025-Jan-23 20:20:00.0004, -7.502112386142187E-03, -4.626204941528951E-01, -3.711792572423852E-02,  2.248752471934321E-02,  9.851119960130846E-04, -1.982083905903155E-03,  2.680809620055230E-03,  4.641677969340325E-01, -1.186782229534869E-03,
2460699.388888894, A.D. 2025-Jan-23 21:20:00.0004, -6.565113720453903E-03, -4.625782594742038E-01, -3.720041713402387E-02,  2.248839202331968E-02,  1.042154766572531E-03, -1.977501823194924E-03,  2.680522638949947E-03,  4.641181076959741E-01, -1.198300792662198E-03,
2460699.430555560, A.D. 2025-Jan-23 22:20:00.0004, -5.628081318924696E-03, -4.625336477410059E-01, -3.728271738113653E-02,  2.248914402701983E-02,  1.099210593713134E-03, -1.972908097971672E-03,  2.680232886234785E-03,  4.640679385685408E-01, -1.209816915210605E-03,
2460699.472222227, A.D. 2025-Jan-23 23:20:00.0004, -4.691019987322435E-03, -4.624866584116062E-01, -3.736482598051621E-02,  2.248978065404905E-02,  1.156279365600416E-03, -1.968302732365763E-03,  2.679940362500171E-03,  4.640172896539626E-01, -1.221330571316157E-03,
2460699.513888894, A.D. 2025-Jan-24 00:20:00.0004, -3.753934534609222E-03, -4.624372909489738E-01, -3.744674244719087E-02,  2.249030182747994E-02,  1.213360970188797E-03, -1.963685728477943E-03,  2.679645068342763E-03,  4.639661610555475E-01, -1.232841735049011E-03,
2460699.555555560, A.D. 2025-Jan-24 01:20:00.0004, -2.816829772963565E-03, -4.623855448207508E-01, -3.752846629627533E-02,  2.249070746985187E-02,  1.270455295218290E-03, -1.959057088377574E-03,  2.679347004365471E-03,  4.639145528776858E-01, -1.244350380412736E-03,
2460699.597222227, A.D. 2025-Jan-24 02:20:00.0004, -1.879710517802615E-03, -4.623314194992617E-01, -3.760999704296993E-02,  2.249099750317044E-02,  1.327562228211162E-03, -1.954416814102850E-03,  2.679046171177466E-03,  4.638624652258524E-01, -1.255856481343611E-03,
2460699.638888894, A.D. 2025-Jan-24 03:20:00.0004, -9.425815878044198E-04, -4.622749144615211E-01, -3.769133420255936E-02,  2.249117184890708E-02,  1.384681656468613E-03, -1.949764907661042E-03,  2.678742569394200E-03,  4.638098982066093E-01, -1.267360011709943E-03,
2460699.680555560, A.D. 2025-Jan-24 04:20:00.0004, -5.447804930186982E-06, -4.622160291892455E-01, -3.777247729041130E-02,  2.249123042799856E-02,  1.441813467067427E-03, -1.945101371028715E-03,  2.678436199637420E-03,  4.637568519276094E-01, -1.278860945311368E-03,
2460699.722222227, A.D. 2025-Jan-24 05:20:00.0004,  9.316860055534374E-04, -4.621547631688600E-01, -3.785342582197505E-02,  2.249117316084650E-02,  1.498957546856619E-03, -1.940426206151965E-03,  2.678127062535190E-03,  4.637033264975978E-01, -1.290359255878157E-03,
2460699.763888894, A.D. 2025-Jan-24 06:20:00.0004,  1.868815015052027E-03, -4.620911158915100E-01, -3.793417931278051E-02,  2.249099996731690E-02,  1.556113782454081E-03, -1.935739414946655E-03,  2.677815158721902E-03,  4.636493220264165E-01, -1.301854917070524E-03,
2460699.805555560, A.D. 2025-Jan-24 07:20:00.0004,  2.805934391621100E-03, -4.620250868530694E-01, -3.801473727843668E-02,  2.249071076673978E-02,  1.613282060243207E-03, -1.931040999298637E-03,  2.677500488838295E-03,  4.635948386250056E-01, -1.313347902477920E-03,
2460699.847222227, A.D. 2025-Jan-24 08:20:00.0004,  3.743039299943731E-03, -4.619566755541516E-01, -3.809509923463059E-02,  2.249030547790859E-02,  1.670462266369517E-03, -1.926330961063998E-03,  2.677183053531473E-03,  4.635398764054081E-01, -1.324838185618339E-03,
2460699.888888894, A.D. 2025-Jan-24 09:20:00.0004,  4.680124901308209E-03, -4.618858815001185E-01, -3.817526469712591E-02,  2.248978401907984E-02,  1.727654286737269E-03, -1.921609302069289E-03,  2.676862853454920E-03,  4.634844354807710E-01, -1.336325739937614E-03,
